NORAD_CAT_ID,OBJECT_NAME,OBJECT_TYPE,EPOCH,MEAN_MOTION,ECCENTRICITY,INCLINATION,RA_OF_ASC_NODE,ARG_OF_PERICENTER,MEAN_ANOMALY,BSTAR,MEAN_MOTION_DOT,MEAN_MOTION_DDOT,TLE_LINE0,TLE_LINE1,TLE_LINE2,SEMIMAJOR_AXIS,PERIOD,APOGEE,PERIGEE,DECAYED
55282.0,STARLINK-5330,PAYLOAD,2023-10-11 13:17:33,14.98329415,0.0002883,69.9986,103.446,269.6086,90.4743,3.1111e-05,2.78e-06,0.0,0 STARLINK-5330,1 55282U 23010P   23284.55386358  .00000278  00000-0  31111-4 0  9998,2 55282  69.9986 103.4460 0002883 269.6086  90.4743 14.98329415 40947,6950.195,96.107,574.063,570.056,0.0
55282.0,STARLINK-5330,PAYLOAD,2023-10-11 18:05:58,14.98329333,0.0002909,69.9987,102.9411,268.8899,91.1927,2.6525e-05,2.23e-06,0.0,0 STARLINK-5330,1 55282U 23010P   23284.75414372  .00000223  00000-0  26525-4 0  9991,2 55282  69.9987 102.9411 0002909 268.8899  91.1927 14.98329333 40671,6950.195,96.107,574.082,570.038,0.0
55282.0,STARLINK-5330,PAYLOAD,2023-10-12 13:19:34,14.98331121,0.0002911,69.9989,100.9211,268.2743,91.8083,1.8155e-05,1.24e-06,0.0,0 STARLINK-5330,1 55282U 23010P   23285.55526292  .00000124  00000-0  18155-4 0  9995,2 55282  69.9989 100.9211 0002911 268.2743  91.8083 14.98331121 41099,6950.189,96.107,574.078,570.031,0.0
55282.0,STARLINK-5330,PAYLOAD,2023-10-12 19:44:06,14.98330948,0.0002958,69.9988,100.2476,268.7298,91.3523,1.2057e-05,5.1e-07,0.0,0 STARLINK-5330,1 55282U 23010P   23285.82230299  .00000051  00000-0  12057-4 0  9998,2 55282  69.9988 100.2476 0002958 268.7298  91.3523 14.98330948 40836,6950.19,96.107,574.111,569.999,0.0
55282.0,STARLINK-5330,PAYLOAD,2023-10-12 21:20:15,14.98331243,0.0002955,69.9988,100.0793,268.7857,91.2963,1.5277e-05,8.9e-07,0.0,0 STARLINK-5330,1 55282U 23010P   23285.88906269  .00000089  00000-0  15277-4 0  9999,2 55282  69.9988 100.0793 0002955 268.7857  91.2963 14.98331243 41145,6950.189,96.107,574.108,570.0,0.0
55282.0,STARLINK-5330,PAYLOAD,2023-10-13 14:57:43,14.98331656,0.0003089,69.9985,98.2271,269.8051,90.2754,5.835e-05,6.03e-06,0.0,0 STARLINK-5330,1 55282U 23010P   23286.62342086  .00000603  00000-0  58350-4 0  9994,2 55282  69.9985  98.2271 0003089 269.8051  90.2754 14.98331656 41255,6950.188,96.107,574.2,569.906,0.0
55282.0,STARLINK-5330,PAYLOAD,2023-10-13 19:46:07,14.98333334,0.0003092,69.9986,97.7225,270.5039,89.5766,7.5975e-05,8.14e-06,0.0,0 STARLINK-5330,1 55282U 23010P   23286.82369928  .00000814  00000-0  75975-4 0  9996,2 55282  69.9986  97.7225 0003092 270.5039  89.5766 14.98333334 40986,6950.183,96.107,574.197,569.899,0.0
55282.0,STARLINK-5330,PAYLOAD,2023-10-13 21:22:15,14.98334172,0.0003089,69.9986,97.5541,270.5181,89.5624,8.409e-05,9.11e-06,0.0,0 STARLINK-5330,1 55282U 23010P   23286.89045845  .00000911  00000-0  84090-4 0  9998,2 55282  69.9986  97.5541 0003089 270.5181  89.5624 14.98334172 41298,6950.18,96.107,574.192,569.898,0.0
55282.0,STARLINK-5330,PAYLOAD,2023-10-14 13:23:36,14.98331948,0.0003071,69.9987,95.8708,270.5405,89.5402,4.0109e-05,3.86e-06,0.0,0 STARLINK-5330,1 55282U 23010P   23287.55806013  .00000386  00000-0  40109-4 0  9993,2 55282  69.9987  95.8708 0003071 270.5405  89.5402 14.98331948 41398,6950.187,96.107,574.186,569.917,0.0
55282.0,STARLINK-5330,PAYLOAD,2023-10-14 19:48:08,14.98333279,0.0003063,69.9988,95.1974,270.4864,89.5944,5.2334e-05,5.32e-06,0.0,0 STARLINK-5330,1 55282U 23010P   23287.82509858  .00000532  00000-0  52334-4 0  9996,2 55282  69.9988  95.1974 0003063 270.4864  89.5944 14.98333279 41138,6950.183,96.107,574.177,569.919,0.0
55282.0,STARLINK-5330,PAYLOAD,2023-10-14 21:24:16,14.98333702,0.000306,69.9988,95.029,270.5077,89.5731,5.6171e-05,5.77e-06,0.0,0 STARLINK-5330,1 55282U 23010P   23287.89185809  .00000577  00000-0  56171-4 0  9991,2 55282  69.9988  95.0290 0003060 270.5077  89.5731 14.98333702 41441,6950.181,96.107,574.173,569.92,0.0
55282.0,STARLINK-5330,PAYLOAD,2023-10-15 13:25:37,14.98330816,0.0002982,69.9992,93.3457,271.0245,89.0572,-1.5633e-06,-1.12e-06,0.0,0 STARLINK-5330,1 55282U 23010P   23288.55946086 -.00000112  00000-0 -15633-5 0  9993,2 55282  69.9992  93.3457 0002982 271.0245  89.0572 14.98330816 41549,6950.19,96.107,574.128,569.983,0.0
55282.0,STARLINK-5330,PAYLOAD,2023-10-15 19:50:09,14.98331602,0.000299,69.9992,92.6724,271.0247,89.0569,4.8273e-06,-3.5e-07,0.0,0 STARLINK-5330,1 55282U 23010P   23288.82649983 -.00000035  00000-0  48273-5 0  9998,2 55282  69.9992  92.6724 0002990 271.0247  89.0569 14.98331602 41280,6950.188,96.107,574.131,569.975,0.0
55282.0,STARLINK-5330,PAYLOAD,2023-10-15 21:26:17,14.98331829,0.0002989,69.9992,92.5041,271.0601,89.0216,7.151e-06,-8e-08,0.0,0 STARLINK-5330,1 55282U 23010P   23288.89325955 -.00000008  00000-0  71510-5 0  9995,2 55282  69.9992  92.5041 0002989 271.0601  89.0216 14.98331829 41597,6950.187,96.107,574.13,569.975,0.0
55282.0,STARLINK-5330,PAYLOAD,2023-10-16 13:27:38,14.98331475,0.0002993,69.9993,90.8208,270.8079,89.2737,1.4316e-05,7.8e-07,0.0,0 STARLINK-5330,1 55282U 23010P   23289.56085901  .00000078  00000-0  14316-4 0  9990,2 55282  69.9993  90.8208 0002993 270.8079  89.2737 14.98331475 41693,6950.188,96.107,574.134,569.973,0.0
55282.0,STARLINK-5330,PAYLOAD,2023-10-16 16:39:54,14.98331917,0.0002988,69.9994,90.4842,270.9058,89.1758,1.8414e-05,1.27e-06,0.0,0 STARLINK-5330,1 55282U 23010P   23289.69437851  .00000127  00000-0  18414-4 0  9997,2 55282  69.9994  90.4842 0002988 270.9058  89.1758 14.98331917 41712,6950.187,96.107,574.129,569.975,0.0
55282.0,STARLINK-5330,PAYLOAD,2023-10-17 11:53:31,14.98330396,0.0002989,69.9994,88.4641,271.6694,88.4123,3.5256e-05,3.28e-06,0.0,0 STARLINK-5330,1 55282U 23010P   23290.49549865  .00000328  00000-0  35256-4 0  9992,2 55282  69.9994  88.4641 0002989 271.6694  88.4123 14.98330396 41539,6950.192,96.107,574.134,569.979,0.0
55282.0,STARLINK-5330,PAYLOAD,2023-10-17 21:30:19,14.98330458,0.0002918,69.9994,87.4539,270.4329,89.6496,4.542e-05,4.49e-06,0.0,0 STARLINK-5330,1 55282U 23010P   23290.89605823  .00000449  00000-0  45420-4 0  9991,2 55282  69.9994  87.4539 0002918 270.4329  89.6496 14.98330458 41892,6950.191,96.107,574.085,570.028,0.0
55282.0,STARLINK-5330,PAYLOAD,2023-10-18 11:55:32,14.98327491,0.000298,69.9995,85.9389,270.9971,89.0847,-9.8061e-06,-2.1e-06,0.0,0 STARLINK-5330,1 55282U 23010P   23291.49690222 -.00000210  00000-0 -98061-5 0  9993,2 55282  69.9995  85.9389 0002980 270.9971  89.0847 14.98327491 41680,6950.201,96.107,574.137,569.994,0.0
55282.0,STARLINK-5330,PAYLOAD,2023-10-18 16:43:56,14.98329331,0.0002938,70.0,85.4348,270.3872,89.6951,2.5318e-05,2.09e-06,0.0,0 STARLINK-5330,1 55282U 23010P   23291.69718030  .00000209  00000-0  25318-4 0  9993,2 55282  70.0000  85.4348 0002938 270.3872  89.6951 14.98329331 42012,6950.195,96.107,574.102,570.018,0.0
55282.0,STARLINK-5330,PAYLOAD,2023-10-19 03:56:56,14.98278309,0.0001614,70.0009,84.256,251.2133,108.8851,-0.00015704,-1.963e-05,0.0,0 STARLINK-5330,1 55282U 23010P   23292.16453943 -.00001963  00000-0 -15704-3 0  9992,2 55282  70.0009  84.2560 0001614 251.2133 108.8851 14.98278309 41786,6950.353,96.11,573.34,571.096,0.0
55282.0,STARLINK-5330,PAYLOAD,2023-10-19 11:57:32,14.98336097,0.0003048,69.998,83.4133,270.5305,89.5505,8.5129e-05,9.23e-06,0.0,0 STARLINK-5330,1 55282U 23010P   23292.49829340  .00000923  00000-0  85129-4 0  9998,2 55282  69.9980  83.4133 0003048 270.5305  89.5505 14.98336097 41832,6950.174,96.107,574.157,569.921,0.0
55282.0,STARLINK-5330,PAYLOAD,2023-10-19 16:45:56,14.98338891,0.0003074,69.9981,82.9087,270.675,89.4057,0.0001037,1.145e-05,0.0,0 STARLINK-5330,1 55282U 23010P   23292.69857052  .00001145  00000-0  10370-3 0  9993,2 55282  69.9981  82.9087 0003074 270.6750  89.4057 14.98338891 42161,6950.165,96.106,574.167,569.894,0.0
55282.0,STARLINK-5330,PAYLOAD,2023-10-20 11:59:34,14.98321783,0.0003067,69.9997,80.8892,270.0609,90.0198,-3.4802e-05,-5.08e-06,0.0,0 STARLINK-5330,1 55282U 23010P   23293.49970411 -.00000508  00000-0 -34802-4 0  9998,2 55282  69.9997  80.8892 0003067 270.0609  90.0198 14.98321783 41983,6950.218,96.108,574.215,569.952,0.0
55282.0,STARLINK-5330,PAYLOAD,2023-10-21 12:01:34,14.98337199,0.0003035,69.9979,78.3618,261.581,98.5005,-3.2471e-06,-1.32e-06,0.0,0 STARLINK-5330,1 55282U 23010P   23294.50109234 -.00000132  00000-0 -32471-5 0  9992,2 55282  69.9979  78.3618 0003035 261.5810  98.5005 14.98337199 42131,6950.171,96.107,574.145,569.926,0.0
55282.0,STARLINK-5330,PAYLOAD,2023-10-21 20:02:13,14.98345351,0.0003077,69.9994,77.5224,268.8265,91.2542,7.9267e-05,8.53e-06,0.0,0 STARLINK-5330,1 55282U 23010P   23294.83488357  .00000853  00000-0  79267-4 0  9995,2 55282  69.9994  77.5224 0003077 268.8265  91.2542 14.98345351 42182,6950.145,96.106,574.149,569.872,0.0
55282.0,STARLINK-5330,PAYLOAD,2023-10-22 02:26:47,14.98320229,0.0001814,70.0024,76.8487,270.2752,89.8199,0.00013896,1.565e-05,0.0,0 STARLINK-5330,1 55282U 23010P   23295.10193778  .00001565  00000-0  13896-3 0  9992,2 55282  70.0024  76.8487 0001814 270.2752  89.8199 14.98320229 42220,6950.223,96.108,573.349,570.827,0.0
55282.0,STARLINK-5330,PAYLOAD,2023-10-22 13:39:44,14.98321352,0.0002517,69.9997,75.6702,266.801,93.2861,1.1496e-05,4.4e-07,0.0,0 STARLINK-5330,1 55282U 23010P   23295.56926151  .00000044  00000-0  11496-4 0  9997,2 55282  69.9997  75.6702 0002517 266.8010  93.2861 14.98321352 42595,6950.22,96.108,573.834,570.335,0.0
55282.0,STARLINK-5330,PAYLOAD,2023-10-22 18:28:07,14.98353916,0.0002317,70.0003,75.1657,249.1829,110.9082,-0.00070156,-8.459e-05,0.0,0 STARLINK-5330,1 55282U 23010P   23295.76953582 -.00008459  00000-0 -70156-3 0  9994,2 55282  70.0003  75.1657 0002317 249.1829 110.9082 14.98353916 42324,6950.119,96.105,573.594,570.374,0.0
55282.0,STARLINK-5330,PAYLOAD,2023-10-23 02:28:48,14.98329803,0.000248,70.0003,74.3249,256.3918,103.6965,-8.1374e-05,-1.064e-05,0.0,0 STARLINK-5330,1 55282U 23010P   23296.10334199 -.00001064  00000-0 -81374-4 0  9990,2 55282  70.0003  74.3249 0002480 256.3918 103.6965 14.98329803 42374,6950.194,96.107,573.782,570.335,0.0
